ORBCOMM FM103           
1 40091U 14040F   25284.45702159  .00000796  00000+0  20665-3 0  9990
2 40091  47.0049 188.6349 0001168  82.3226 277.7793 14.58371633581072
ORBCOMM FM114           
1 41179U 15081A   25284.88641141  .00000876  00000+0  22348-3 0  9993
2 41179  47.0020  95.5905 0002129 177.7295 182.3601 14.58407357521500
ORBCOMM FM119           
1 41180U 15081B   25284.94822418  .00000860  00000+0  22039-3 0  9990
2 41180  47.0022   4.6436 0001921 239.8912 120.1784 14.58349856522769
ORBCOMM FM105           
1 41181U 15081C   25284.70900355  .00000436  00000+0  16748-3 0  9991
2 41181  47.0029  22.0734 0001351 150.7148 209.3808 14.45325040517600
ORBCOMM FM110           
1 41182U 15081D   25284.80969541  .00001106  00000+0  27260-3 0  9991
2 41182  47.0010  95.4827 0002028   5.6962 354.3947 14.58438249521365
ORBCOMM FM118           
1 41183U 15081E   25284.84245055  .00000669  00000+0  17939-3 0  9998
2 41183  47.0035  95.5947 0002851 320.2031  39.8646 14.58402872521470
ORBCOMM FM112           
1 41184U 15081F   25284.50507846  .00001399  00000+0  33481-3 0  9992
2 41184  47.0007   5.7810 0001592 195.0610 165.0228 14.58463229522645
ORBCOMM FM113           
1 41185U 15081G   25284.27663121  .00001139  00000+0  27931-3 0  9991
2 41185  47.0022   7.2050 0001644 209.4242 150.6552 14.58472118522596
